{"type": "FeatureCollection", "features": [ {"type": "Feature", "properties": {"norad_id": 51444, "name": "CSG-2", "group": "resource", "lat": 31.53781112042131, "lon": 164.73740053941768, "alt_km": 620.0321495479311, "timestamp": "2025-12-14T07:33:19.135817+00:00", "meta": {"OBJECT_NAME": "CSG-2", "OBJECT_ID": "2022-008A", "EPOCH": "2025-12-13T15:12:34.499232", "MEAN_MOTION": 14.82165839, "ECCENTRICITY": 0.00015145, "INCLINATION": 97.8809, "RA_OF_ASC_NODE": 168.9433, "ARG_OF_PERICENTER": 81.9157, "MEAN_ANOMALY": 278.2228, "EPHEMERIS_TYPE": 0, "CLASSIFICATION_TYPE": "U", "NORAD_CAT_ID": 51444, "ELEMENT_SET_NO": 999, "REV_AT_EPOCH": 20910, "BSTAR": 9.9250939e-05, "MEAN_MOTION_DOT": 7.38e-06, "MEAN_MOTION_DDOT": 0}, "tle": {"line1": "1 51444U 22008A   25347.63373263  .00000738  00000+0  99251-4 0  9991", "line2": "2 51444  97.8809 168.9433 0001514  81.9157 278.2228 14.82165839209107"}}, "geometry": {"type": "Point", "coordinates": [164.73740053941768, 31.53781112042131]}}, {"type": "Feature", "properties": {"norad_id": 52912, "name": "GAOFEN-12 03", "group": "resource", "lat": -64.83027646540718, "lon": -107.30433142351401, "alt_km": 638.6413705594596, "timestamp": "2025-12-14T07:33:19.135828+00:00", "meta": {"OBJECT_NAME": "GAOFEN-12 03", "OBJECT_ID": "2022-069A", "EPOCH": "2025-12-13T17:14:45.388896", "MEAN_MOTION": 14.79614459, "ECCENTRICITY": 0.00021312, "INCLINATION": 97.8479, "RA_OF_ASC_NODE": 235.045, "ARG_OF_PERICENTER": 62.1486, "MEAN_ANOMALY": 297.9941, "EPHEMERIS_TYPE": 0, "CLASSIFICATION_TYPE": "U", "NORAD_CAT_ID": 52912, "ELEMENT_SET_NO": 999, "REV_AT_EPOCH": 18718, "BSTAR": 0.00030177454, "MEAN_MOTION_DOT": 2.211e-05, "MEAN_MOTION_DDOT": 0}, "tle": {"line1": "1 52912U 22069A   25347.71858089  .00002211  00000+0  30177-3 0  9991", "line2": "2 52912  97.8479 235.0450 0002131  62.1486 297.9941 14.79614459187184"}}, "geometry": {"type": "Point", "coordinates": [-107.30433142351401, -64.83027646540718]}}, {"type": "Feature", "properties": {"norad_id": 54754, "name": "SWOT", "group": "resource", "lat": -0.5807276434409849, "lon": 104.99145278314411, "alt_km": 895.9728999899489, "timestamp": "2025-12-14T07:33:19.135838+00:00", "meta": {"OBJECT_NAME": "SWOT", "OBJECT_ID": "2022-173A", "EPOCH": "2025-12-13T15:15:43.227936", "MEAN_MOTION": 14.0016705, "ECCENTRICITY": 3.314e-05, "INCLINATION": 77.6107, "RA_OF_ASC_NODE": 285.7799, "ARG_OF_PERICENTER": 108.0304, "MEAN_ANOMALY": 252.0884, "EPHEMERIS_TYPE": 0, "CLASSIFICATION_TYPE": "U", "NORAD_CAT_ID": 54754, "ELEMENT_SET_NO": 999, "REV_AT_EPOCH": 15318, "BSTAR": 6.4488813e-05, "MEAN_MOTION_DOT": 9.3e-07, "MEAN_MOTION_DDOT": 0}, "tle": {"line1": "1 54754U 22173A   25347.63591699  .00000093  00000+0  64489-4 0  9995", "line2": "2 54754  77.6107 285.7799 0000331 108.0304 252.0884 14.00167050153186"}}, "geometry": {"type": "Point", "coordinates": [104.99145278314411, -0.5807276434409849]}}, {"type": "Feature", "properties": {"norad_id": 57654, "name": "GAOFEN-12 04", "group": "resource", "lat": 73.7678471790996, "lon": 112.58051047443567, "alt_km": 622.3900210006959, "timestamp": "2025-12-14T07:33:19.135849+00:00", "meta": {"OBJECT_NAME": "GAOFEN-12 04", "OBJECT_ID": "2023-123A", "EPOCH": "2025-12-13T16:28:47.561376", "MEAN_MOTION": 14.79704585, "ECCENTRICITY": 0.00013402, "INCLINATION": 97.9117, "RA_OF_ASC_NODE": 263.4295, "ARG_OF_PERICENTER": 75.0934, "MEAN_ANOMALY": 285.0426, "EPHEMERIS_TYPE": 0, "CLASSIFICATION_TYPE": "U", "NORAD_CAT_ID": 57654, "ELEMENT_SET_NO": 999, "REV_AT_EPOCH": 12519, "BSTAR": 0.00026708572, "MEAN_MOTION_DOT": 1.955e-05, "MEAN_MOTION_DDOT": 0}, "tle": {"line1": "1 57654U 23123A   25347.68666159  .00001955  00000+0  26709-3 0  9992", "line2": "2 57654  97.9117 263.4295 0001340  75.0934 285.0426 14.79704585125195"}}, "geometry": {"type": "Point", "coordinates": [112.58051047443567, 73.7678471790996]}}, {"type": "Feature", "properties": {"norad_id": 59065, "name": "PARS 1", "group": "resource", "lat": 51.40919626997618, "lon": 148.73661348065417, "alt_km": 434.2199849176013, "timestamp": "2025-12-14T07:33:19.135859+00:00", "meta": {"OBJECT_NAME": "PARS 1", "OBJECT_ID": "2024-039Q", "EPOCH": "2025-12-13T15:25:08.262336", "MEAN_MOTION": 15.41000683, "ECCENTRICITY": 0.00125096, "INCLINATION": 97.4634, "RA_OF_ASC_NODE": 318.5948, "ARG_OF_PERICENTER": 69.607, "MEAN_ANOMALY": 290.6519, "EPHEMERIS_TYPE": 0, "CLASSIFICATION_TYPE": "U", "NORAD_CAT_ID": 59065, "ELEMENT_SET_NO": 999, "REV_AT_EPOCH": 10002, "BSTAR": 0.00032868843, "MEAN_MOTION_DOT": 0.0001351, "MEAN_MOTION_DDOT": 0}, "tle": {"line1": "1 59065U 24039Q   25347.64245674  .00013510  00000+0  32869-3 0  9992", "line2": "2 59065  97.4634 318.5948 0012509  69.6070 290.6519 15.41000683100026"}}, "geometry": {"type": "Point", "coordinates": [148.73661348065417, 51.40919626997618]}}, {"type": "Feature", "properties": {"norad_id": 59371, "name": "RESURS-P 4", "group": "resource", "lat": -39.14468359534769, "lon": 108.66125885713224, "alt_km": 477.0858436638773, "timestamp": "2025-12-14T07:33:19.135869+00:00", "meta": {"OBJECT_NAME": "RESURS-P 4", "OBJECT_ID": "2024-061A", "EPOCH": "2025-12-13T16:29:35.124576", "MEAN_MOTION": 15.32095446, "ECCENTRICITY": 0.0001471, "INCLINATION": 97.2541, "RA_OF_ASC_NODE": 293.9978, "ARG_OF_PERICENTER": 53.3438, "MEAN_ANOMALY": 306.7939, "EPHEMERIS_TYPE": 0, "CLASSIFICATION_TYPE": "U", "NORAD_CAT_ID": 59371, "ELEMENT_SET_NO": 999, "REV_AT_EPOCH": 9535, "BSTAR": 0.00016535137, "MEAN_MOTION_DOT": 5.047e-05, "MEAN_MOTION_DDOT": 0}, "tle": {"line1": "1 59371U 24061A   25347.68721209  .00005047  00000+0  16535-3 0  9992", "line2": "2 59371  97.2541 293.9978 0001471  53.3438 306.7939 15.32095446 95359"}}, "geometry": {"type": "Point", "coordinates": [108.66125885713224, -39.14468359534769]}}, {"type": "Feature", "properties": {"norad_id": 59625, "name": "LEGION 1", "group": "resource", "lat": -3.91078734651938, "lon": 63.4570970543781, "alt_km": 518.0827330455131, "timestamp": "2025-12-14T07:33:19.135879+00:00", "meta": {"OBJECT_NAME": "LEGION 1", "OBJECT_ID": "2024-081A", "EPOCH": "2025-12-13T15:44:11.977152", "MEAN_MOTION": 15.16493413, "ECCENTRICITY": 0.00038839, "INCLINATION": 97.5213, "RA_OF_ASC_NODE": 62.2861, "ARG_OF_PERICENTER": 314.2454, "MEAN_ANOMALY": 45.8459, "EPHEMERIS_TYPE": 0, "CLASSIFICATION_TYPE": "U", "NORAD_CAT_ID": 59625, "ELEMENT_SET_NO": 999, "REV_AT_EPOCH": 8941, "BSTAR": 0.00030416444, "MEAN_MOTION_DOT": 5.858e-05, "MEAN_MOTION_DDOT": 0}, "tle": {"line1": "1 59625U 24081A   25347.65569418  .00005858  00000+0  30416-3 0  9999", "line2": "2 59625  97.5213  62.2861 0003883 314.2454  45.8459 15.16493413 89410"}}, "geometry": {"type": "Point", "coordinates": [63.4570970543781, -3.91078734651938]}}, {"type": "Feature", "properties": {"norad_id": 59626, "name": "LEGION 2", "group": "resource", "lat": 3.931933210343297, "lon": -116.45264879407637, "alt_km": 520.3680156691626, "timestamp": "2025-12-14T07:33:19.135890+00:00", "meta": {"OBJECT_NAME": "LEGION 2", "OBJECT_ID": "2024-081B", "EPOCH": "2025-12-13T16:31:45.255072", "MEAN_MOTION": 15.16506647, "ECCENTRICITY": 0.00056851, "INCLINATION": 97.5218, "RA_OF_ASC_NODE": 62.4062, "ARG_OF_PERICENTER": 289.5179, "MEAN_ANOMALY": 70.544, "EPHEMERIS_TYPE": 0, "CLASSIFICATION_TYPE": "U", "NORAD_CAT_ID": 59626, "ELEMENT_SET_NO": 999, "REV_AT_EPOCH": 8942, "BSTAR": 0.00034386768, "MEAN_MOTION_DOT": 6.636e-05, "MEAN_MOTION_DDOT": 0}, "tle": {"line1": "1 59626U 24081B   25347.68871823  .00006636  00000+0  34387-3 0  9995", "line2": "2 59626  97.5218  62.4062 0005685 289.5179  70.5440 15.16506647 89421"}}, "geometry": {"type": "Point", "coordinates": [-116.45264879407637, 3.931933210343297]}}, {"type": "Feature", "properties": {"norad_id": 60182, "name": "ALOS-4 (DAICHI-4)", "group": "resource", "lat": -16.248371637667642, "lon": 85.4649032775518, "alt_km": 636.0563973753196, "timestamp": "2025-12-14T07:33:19.135900+00:00", "meta": {"OBJECT_NAME": "ALOS-4 (DAICHI-4)", "OBJECT_ID": "2024-123A", "EPOCH": "2025-12-10T20:50:51.532800", "MEAN_MOTION": 14.79478132, "ECCENTRICITY": 0.0001419, "INCLINATION": 97.9225, "RA_OF_ASC_NODE": 79.7424, "ARG_OF_PERICENTER": 101.2045, "MEAN_ANOMALY": 258.9326, "EPHEMERIS_TYPE": 0, "CLASSIFICATION_TYPE": "U", "NORAD_CAT_ID": 60182, "ELEMENT_SET_NO": 999, "REV_AT_EPOCH": 7803, "BSTAR": 0.00039567, "MEAN_MOTION_DOT": 2.905e-05, "MEAN_MOTION_DDOT": 0}, "tle": {"line1": "1 60182U 24123A   25344.86865200  .00002905  00000+0  39567-3 0  9990", "line2": "2 60182  97.9225  79.7424 0001419 101.2045 258.9326 14.79478132 78033"}}, "geometry": {"type": "Point", "coordinates": [85.4649032775518, -16.248371637667642]}}, {"type": "Feature", "properties": {"norad_id": 60452, "name": "LEGION 3", "group": "resource", "lat": -35.24132967838455, "lon": 166.67471863652938, "alt_km": 512.6684552836496, "timestamp": "2025-12-14T07:33:19.135911+00:00", "meta": {"OBJECT_NAME": "LEGION 3", "OBJECT_ID": "2024-146A", "EPOCH": "2025-12-13T14:42:27.939168", "MEAN_MOTION": 15.15773904, "ECCENTRICITY": 0.00149803, "INCLINATION": 45.0016, "RA_OF_ASC_NODE": 305.4522, "ARG_OF_PERICENTER": 203.418, "MEAN_ANOMALY": 156.6017, "EPHEMERIS_TYPE": 0, "CLASSIFICATION_TYPE": "U", "NORAD_CAT_ID": 60452, "ELEMENT_SET_NO": 999, "REV_AT_EPOCH": 7386, "BSTAR": 0.00035495471, "MEAN_MOTION_DOT": 6.647e-05, "MEAN_MOTION_DDOT": 0}, "tle": {"line1": "1 60452U 24146A   25347.61282337  .00006647  00000+0  35495-3 0  9998", "line2": "2 60452  45.0016 305.4522 0014980 203.4180 156.6017 15.15773904 73868"}}, "geometry": {"type": "Point", "coordinates": [166.67471863652938, -35.24132967838455]}}]}